[{"OBJECT_NAME":"STARLINK-32084","OBJECT_ID":"2024-136U","EPOCH":"2026-03-09T09:43:29.768160","MEAN_MOTION":15.30190369,"ECCENTRICITY":0.00012665,"INCLINATION":53.161,"RA_OF_ASC_NODE":76.7943,"ARG_OF_PERICENTER":92.6485,"MEAN_ANOMALY":267.466,"EPHEMERIS_TYPE":0,"CLASSIFICATION_TYPE":"U","NORAD_CAT_ID":60347,"ELEMENT_SET_NO":999,"REV_AT_EPOCH":8962,"BSTAR":4.3394e-6,"MEAN_MOTION_DOT":-2.31e-6,"MEAN_MOTION_DDOT":0},{"OBJECT_NAME":"CZ-6A DEB","OBJECT_ID":"2022-151QV","EPOCH":"2026-03-09T04:36:08.895168","MEAN_MOTION":15.24642942,"ECCENTRICITY":0.00273347,"INCLINATION":98.639,"RA_OF_ASC_NODE":154.2763,"ARG_OF_PERICENTER":174.5721,"MEAN_ANOMALY":185.5815,"EPHEMERIS_TYPE":0,"CLASSIFICATION_TYPE":"U","NORAD_CAT_ID":54908,"ELEMENT_SET_NO":999,"REV_AT_EPOCH":17373,"BSTAR":0.0098290719,"MEAN_MOTION_DOT":0.00253193,"MEAN_MOTION_DDOT":0}]
